NOAA 15                 
1 25338U 98030A   18039.91438098  .00000008  00000-0  22460-4 0  9990
2 25338  98.7765  56.2153 0009693 236.6613 123.3639 14.25838050 26484
METEOSAT-8 (MSG-1)      
1 27509U 02040B   18039.66006333  .00000128  00000-0  00000-0 0  9998
2 27509   5.2474  57.4690 0002319 335.7413  24.3711  1.00272050 56678
KALPANA-1 (METSAT 1)    
1 27525U 02043A   18029.10184806 -.00000086  00000-0  00000+0 0  9992
2 27525   6.7188  53.8133 0016102 239.7043 304.2380  1.00272139 56347
NOAA 18                 
1 28654U 05018A   18039.95323715  .00000007  00000-0  29195-4 0  9992
2 28654  99.1615  72.6960 0015180 126.0324 234.2256 14.12366018655586
METEOSAT-9 (MSG-2)      
1 28912U 05049B   18039.80420146  .00000048  00000-0  00000-0 0  9998
2 28912   2.6688  71.6607 0003053 264.7891 101.1182  1.00271602 44459
HIMAWARI-7 (MTSAT-2)    
1 28937U 06004A   18039.90007462 -.00000254  00000-0  00000-0 0  9990
2 28937   0.0079  26.9452 0003569 299.9241 281.0935  1.00273785 43899
FORMOSAT-3 FM6          
1 29047U 06011A   18039.51121710  .00000006  00000-0  18583-4 0  9994
2 29047  71.9786  64.9657 0047956 105.6651 254.9784 14.28621149618512
FORMOSAT-3 FM1          
1 29048U 06011B   18039.92063074  .00000049  00000-0  35681-4 0  9993
2 29048  71.9687 336.0226 0041836  58.9552 301.5681 14.28558694621051
FORMOSAT-3 FM5          
1 29049U 06011C   18039.75847129  .00000052  00000-0  36734-4 0  9990
2 29049  72.0209 143.1466 0033097  95.5558 264.9355 14.28621467616817
FORMOSAT-3 FM3          
1 29050U 06011D   18039.35798931  .00000141  00000-0  40153-4 0  9993
2 29050  72.0166  17.7416 0047703  87.7460 272.9153 14.58624689630909
FORMOSAT-3 FM4          
1 29051U 06011E   18039.42530065  .00000052  00000-0  36469-4 0  9990
2 29051  72.0054  47.4764 0069465 330.3004  29.4195 14.28649743619354
FORMOSAT-3 FM2          
1 29052U 06011F   18039.76404553  .00000050  00000-0  35967-4 0  9990
2 29052  72.0349 118.4391 0038512  55.1152 305.3595 14.28744586617722
GOES 13                 
1 29155U 06018A   18038.78272639 -.00000296  00000-0  00000-0 0  9999
2 29155   0.3370 102.4260 0004007 302.6777 314.8969  1.00256071 12796
METOP-A                 
1 29499U 06044A   18039.94869390 -.00000012  00000-0  14146-4 0  9990
2 29499  98.6462 100.2019 0001059 152.1366 334.4034 14.21516432586595
FENGYUN 2D              
1 29640U 06053A   18039.50811525 -.00000374  00000-0  10000-3 0  9992
2 29640   4.8870  63.2504 0006321 320.4529  61.0731  1.00283598 40971
FENGYUN 3A              
1 32958U 08026A   18039.81098009  .00000002  00000-0  20550-4 0  9997
2 32958  98.3895  61.4130 0008794 321.1117  38.9430 14.19691884502904
FENGYUN 2E              
1 33463U 08066A   18039.91273134 -.00000212  00000-0  00000-0 0  9996
2 33463   2.6319  68.5646 0004607 238.4055 246.7992  1.00279556 33506
NOAA 19                 
1 33591U 09005A   18039.90685482  .00000094  00000-0  76541-4 0  9998
2 33591  99.1267  15.4922 0013556 330.9029  29.1385 14.12252487463801
GOES 14                 
1 35491U 09033A   18038.90632523 -.00000105  00000-0  00000-0 0  9994
2 35491   0.0354 249.6058 0008687 355.9125 114.3595  1.00272136 31564
METEOR-M 1              
1 35865U 09049A   18039.93081943  .00000034  00000-0  34100-4 0  9996
2 35865  98.4111  55.8989 0002683 153.1631 206.9687 14.22135843435605
GOES 15                 
1 36411U 10008A   18038.99241721  .00000078  00000-0  00000-0 0  9994
2 36411   0.0488 251.9979 0000754  18.5631  89.3986  1.00267313 29095
COMS 1                  
1 36744U 10032A   18039.75257616 -.00000356  00000-0  00000-0 0  9995
2 36744   0.0120 325.5597 0001089  59.7508 152.5917  1.00271565 20501
FENGYUN 3B              
1 37214U 10059A   18039.77685762 -.00000011  00000-0  17362-4 0  9997
2 37214  98.9298   3.7391 0016482 182.7403 177.3688 14.15874858376022
SUOMI NPP               
1 37849U 11061A   18039.91522505 -.00000001  00000-0  20436-4 0  9991
2 37849  98.7264 340.1811 0001129 115.3939 314.9488 14.19561740325680
FENGYUN 2F              
1 38049U 12002A   18039.89706672 -.00000370  00000-0  00000-0 0  9996
2 38049   2.1963  78.3020 0001610 227.3734 268.2898  1.00273171 22305
METEOSAT-10 (MSG-3)     
1 38552U 12035B   18038.61488729 -.00000011  00000-0  00000-0 0  9992
2 38552   0.8708  22.1252 0001628 275.7126  62.1149  1.00276750 20620
METOP-B                 
1 38771U 12049A   18039.96380788 -.00000020  00000-0  10805-4 0  9993
2 38771  98.6910 101.5129 0000261   6.0427 352.3740 14.21494681279910
FENGYUN 3C              
1 39260U 13052A   18039.79033156  .00000003  00000-0  21822-4 0  9998
2 39260  98.6201 108.6878 0001761  75.2783 284.8577 14.19668403226950
METEOR-M 2              
1 40069U 14037A   18039.87893433 -.00000021  00000-0  10402-4 0  9995
2 40069  98.6219  94.2775 0004283 244.9307 115.1417 14.20649455186168
HIMAWARI-8              
1 40267U 14060A   18039.22511819 -.00000288  00000-0  00000-0 0  9999
2 40267   0.0128 151.3552 0000979 177.0368  31.5706  1.00272739 12175
FENGYUN 2G              
1 40367U 14090A   18039.89842065 -.00000341  00000-0  00000-0 0  9996
2 40367   0.2076 161.1957 0001821 180.0901 225.7874  1.00265972 11456
METEOSAT-11 (MSG-4)     
1 40732U 15034A   18036.25514895 -.00000042  00000-0  00000-0 0  9993
2 40732   1.4577 224.6525 0001522  87.5248 271.8243  1.00278967  9424
ELEKTRO-L 2             
1 41105U 15074A   18039.88012883 -.00000108  00000-0  00000-0 0  9997
2 41105   0.0605  83.8266 0000980 213.8837 234.0162  1.00271262  7934
HIMAWARI-9              
1 41836U 16064A   18039.22498458 -.00000288  00000-0  00000-0 0  9991
2 41836   0.0424 291.2282 0000827  59.9459   8.7930  1.00269829  4602
GOES 16                 
1 41866U 16071A   18038.82587286 -.00000261  00000-0  00000-0 0  9996
2 41866   0.0220 309.3630 0001501  75.7133 334.8990  1.00271994  4517
FENGYUN 4A              
1 41882U 16077A   18039.89842065 -.00000342  00000-0  00000-0 0  9997
2 41882   0.0536  85.7938 0009540  39.8186  81.3513  1.00276717  4390
CYGFM05                 
1 41884U 16078A   18039.31655279  .00000384  00000-0  22475-4 0  9995
2 41884  34.9578   0.3281 0016768 287.2240  72.6636 15.13878783 63640
CYGFM04                 
1 41885U 16078B   18039.25978389  .00001770  00000-0  95513-4 0  9992
2 41885  34.9510 358.6952 0015072 288.0648  71.8421 15.14485327 63652
CYGFM02                 
1 41886U 16078C   18039.23863662  .00001722  00000-0  93617-4 0  9998
2 41886  34.9602 359.7610 0015756 286.5841  73.3140 15.14232217 63647
CYGFM01                 
1 41887U 16078D   18039.26071697  .00001081  00000-0  60029-4 0  9990
2 41887  34.9546   0.7176 0017197 287.9158  71.9678 15.13830076 63637
CYGFM08                 
1 41888U 16078E   18039.27788469  .00000391  00000-0  22736-4 0  9990
2 41888  34.9516 359.8153 0016311 288.4266  71.4672 15.14044861 63630
CYGFM06                 
1 41889U 16078F   18039.29187493  .00000402  00000-0  23049-4 0  9994
2 41889  34.9596 358.2758 0014705 286.8956  73.0143 15.14511472 63656
CYGFM07                 
1 41890U 16078G   18039.27173643  .00000401  00000-0  22981-4 0  9999
2 41890  34.9534 357.9169 0014412 287.9440  71.9700 15.14518315 63656
CYGFM03                 
1 41891U 16078H   18039.26640179  .00000390  00000-0  22377-4 0  9998
2 41891  34.9567 357.9739 0013903 287.4011  72.5180 15.14519009 63659
FENGYUN 3D              
1 43010U 17072A   18039.83934667 -.00000019  00000-0  11384-4 0  9994
2 43010  98.6630 343.3005 0002648  52.0985 308.0427 14.19688901 12227
NOAA 20                 
1 43013U 17073A   18039.86629337 -.00000038  00000-0  28197-5 0  9998
2 43013  98.7148 340.1258 0000739  82.8532 277.2728 14.19550920 11700
